[{"OBJECT_NAME":"TDRS 11","OBJECT_ID":"2013-004A","EPOCH":"2026-03-03T03:56:36.357216","MEAN_MOTION":1.00276128,"ECCENTRICITY":0.0003922,"INCLINATION":3.3655,"RA_OF_ASC_NODE":29.3283,"ARG_OF_PERICENTER":349.9644,"MEAN_ANOMALY":26.4206,"EPHEMERIS_TYPE":0,"CLASSIFICATION_TYPE":"U","NORAD_CAT_ID":39070,"ELEMENT_SET_NO":999,"REV_AT_EPOCH":4563,"BSTAR":0,"MEAN_MOTION_DOT":6.7e-7,"MEAN_MOTION_DDOT":0},{"OBJECT_NAME":"TDRS 12","OBJECT_ID":"2014-004A","EPOCH":"2026-03-03T04:20:33.380160","MEAN_MOTION":1.00270499,"ECCENTRICITY":0.0003976,"INCLINATION":3.8746,"RA_OF_ASC_NODE":17.218,"ARG_OF_PERICENTER":267.0874,"MEAN_ANOMALY":260.8909,"EPHEMERIS_TYPE":0,"CLASSIFICATION_TYPE":"U","NORAD_CAT_ID":39504,"ELEMENT_SET_NO":999,"REV_AT_EPOCH":4321,"BSTAR":0,"MEAN_MOTION_DOT":-2.83e-6,"MEAN_MOTION_DDOT":0},{"OBJECT_NAME":"GPM-CORE","OBJECT_ID":"2014-009C","EPOCH":"2026-03-03T04:06:15.668352","MEAN_MOTION":15.44582903,"ECCENTRICITY":0.0012448,"INCLINATION":64.974,"RA_OF_ASC_NODE":303.322,"ARG_OF_PERICENTER":264.297,"MEAN_ANOMALY":95.6751,"EPHEMERIS_TYPE":0,"CLASSIFICATION_TYPE":"U","NORAD_CAT_ID":39574,"ELEMENT_SET_NO":999,"REV_AT_EPOCH":68143,"BSTAR":0.00032681,"MEAN_MOTION_DOT":0.00015098,"MEAN_MOTION_DDOT":0},{"OBJECT_NAME":"MMS 1","OBJECT_ID":"2015-011A","EPOCH":"2026-03-03T06:00:00.998784","MEAN_MOTION":0.2821253,"ECCENTRICITY":0.8416523,"INCLINATION":70.7146,"RA_OF_ASC_NODE":350.2382,"ARG_OF_PERICENTER":165.1307,"MEAN_ANOMALY":293.1842,"EPHEMERIS_TYPE":0,"CLASSIFICATION_TYPE":"U","NORAD_CAT_ID":40482,"ELEMENT_SET_NO":999,"REV_AT_EPOCH":133,"BSTAR":0,"MEAN_MOTION_DOT":-2.043e-5,"MEAN_MOTION_DDOT":0},{"OBJECT_NAME":"MMS 2","OBJECT_ID":"2015-011B","EPOCH":"2026-03-03T06:00:00.998784","MEAN_MOTION":0.28212557,"ECCENTRICITY":0.8417251,"INCLINATION":70.7148,"RA_OF_ASC_NODE":350.2403,"ARG_OF_PERICENTER":165.1368,"MEAN_ANOMALY":293.1676,"EPHEMERIS_TYPE":0,"CLASSIFICATION_TYPE":"U","NORAD_CAT_ID":40483,"ELEMENT_SET_NO":999,"REV_AT_EPOCH":133,"BSTAR":0,"MEAN_MOTION_DOT":-2.043e-5,"MEAN_MOTION_DDOT":0},{"OBJECT_NAME":"MMS 3","OBJECT_ID":"2015-011C","EPOCH":"2026-03-03T06:00:00.998784","MEAN_MOTION":0.28212523,"ECCENTRICITY":0.8416538,"INCLINATION":70.7172,"RA_OF_ASC_NODE":350.245,"ARG_OF_PERICENTER":165.1309,"MEAN_ANOMALY":293.1764,"EPHEMERIS_TYPE":0,"CLASSIFICATION_TYPE":"U","NORAD_CAT_ID":40484,"ELEMENT_SET_NO":999,"REV_AT_EPOCH":133,"BSTAR":0,"MEAN_MOTION_DOT":-2.043e-5,"MEAN_MOTION_DDOT":0},{"OBJECT_NAME":"MMS 4","OBJECT_ID":"2015-011D","EPOCH":"2026-03-03T06:00:00.998784","MEAN_MOTION":0.28199666,"ECCENTRICITY":0.8416127,"INCLINATION":70.7152,"RA_OF_ASC_NODE":350.2407,"ARG_OF_PERICENTER":165.1294,"MEAN_ANOMALY":293.1929,"EPHEMERIS_TYPE":0,"CLASSIFICATION_TYPE":"U","NORAD_CAT_ID":40485,"ELEMENT_SET_NO":999,"REV_AT_EPOCH":133,"BSTAR":0,"MEAN_MOTION_DOT":-2.044e-5,"MEAN_MOTION_DDOT":0},{"OBJECT_NAME":"TDRS 13","OBJECT_ID":"2017-047A","EPOCH":"2026-03-03T01:23:38.866272","MEAN_MOTION":1.00272055,"ECCENTRICITY":0.0010083,"INCLINATION":3.4295,"RA_OF_ASC_NODE":0.0304,"ARG_OF_PERICENTER":99.5027,"MEAN_ANOMALY":70.7268,"EPHEMERIS_TYPE":0,"CLASSIFICATION_TYPE":"U","NORAD_CAT_ID":42915,"ELEMENT_SET_NO":999,"REV_AT_EPOCH":3128,"BSTAR":0,"MEAN_MOTION_DOT":-1.13e-6,"MEAN_MOTION_DDOT":0},{"OBJECT_NAME":"NOAA 20 (JPSS-1)","OBJECT_ID":"2017-073A","EPOCH":"2026-03-03T03:10:30.528192","MEAN_MOTION":14.1953398,"ECCENTRICITY":9.0e-5,"INCLINATION":98.7685,"RA_OF_ASC_NODE":2.5849,"ARG_OF_PERICENTER":145.6534,"MEAN_ANOMALY":214.47,"EPHEMERIS_TYPE":0,"CLASSIFICATION_TYPE":"U","NORAD_CAT_ID":43013,"ELEMENT_SET_NO":999,"REV_AT_EPOCH":42942,"BSTAR":5.9529e-5,"MEAN_MOTION_DOT":8.1e-7,"MEAN_MOTION_DDOT":0}]
